CZ-4B R/B               
1 28059U 03049C   19034.85690641  .00000010  00000-0  14399-4 0  9997
2 28059  98.5047 300.4428 0049259 224.7904 176.9044 14.52551426810293
CZ-2C R/B               
1 28222U 04012C   19034.92165598  .00000511  00000-0  34886-4 0  9995
2 28222  97.6083 353.6004 0046244 301.6145 110.8343 15.09961342810607
SL-16 R/B               
1 28353U 04021B   19034.91503497 -.00000280  00000-0 -12178-3 0  9997
2 28353  70.9979 266.9979 0004944 345.7663  14.3319 14.14213036756517
CZ-2C R/B               
1 28480U 04046B   19034.80640192 -.00000028  00000-0  54021-5 0  9991
2 28480  98.1506 101.4947 0140754 262.9914 205.6652 14.25692011739223
ARIANE 5 R/B            
1 28499U 04049H   19034.89124019  .00000032  00000-0  11227-4 0  9992
2 28499  98.0523 130.3258 0093627  88.0281  48.2113 14.79945973762201
CZ-2D R/B               
1 28738U 05024B   19034.68651441  .00000350  00000-0  24226-4 0  9999
2 28738  97.4301  67.4981 0013626 107.6231 252.6488 15.11712706745896
SUZAKU (ASTRO-EII)      
1 28773U 05025A   19034.42399776  .00000992  00000-0  44757-4 0  9994
2 28773  31.3838  26.3450 0004619 217.7418 142.2905 15.16892194747956
ALOS (DAICHI)           
1 28931U 06002A   19034.88362001  .00000113  00000-0  30867-4 0  9999
2 28931  97.8169  41.2254 0000341 115.3912 244.7328 14.62575779694678
H-2A R/B                
1 28932U 06002B   19034.90266927  .00000435  00000-0  46171-4 0  9995
2 28932  98.2631 353.6981 0089637 155.6682 269.0681 14.91888376706657
AKARI (ASTRO-F)         
1 28939U 06005A   19034.86767418  .00002934  00000-0  85240-4 0  9997
2 28939  98.1924 309.5115 0097461 270.1599  88.8472 15.31882203704359
RESURS-DK 1             
1 29228U 06021A   19034.96372967  .00000059  00000-0  11799-4 0  9993
2 29228  69.9361  19.4311 0004027 190.1910 169.9169 15.02401928697726
GENESIS 1               
1 29252U 06029A   19034.80109910  .00000478  00000-0  33323-4 0  9999
2 29252  64.5019 135.5924 0053895 262.1131  97.3872 15.17562383692264
CZ-4B R/B               
1 29507U 06046C   19034.94118749  .00000139  00000-0  15822-4 0  9994
2 29507  97.7856  52.7787 0047352  42.6650 317.8235 15.00451479670465
CZ-2C R/B               
1 31114U 07010B   19034.76057696  .00000034  00000-0  35073-4 0  9990
2 31114  98.3316 274.2902 0058616 282.5555  76.9070 14.19289355612135
COSMO-SKYMED 1          
1 31598U 07023A   19034.83212180  .00000209  00000-0  32857-4 0  9990
2 31598  97.8855 220.1066 0001409  90.1539 269.9828 14.82158122630825
GENESIS 2               
1 31789U 07028A   19034.81167515  .00000206  00000-0  20798-4 0  9994
2 31789  64.5034 175.7741 0039829 304.5926  55.1441 15.16801390639387
COSMOS 2428             
1 31792U 07029A   19034.92721445 -.00000270  00000-0 -12043-3 0  9995
2 31792  70.9585 240.9868 0006929  96.5264 263.6646 14.12552924598249
SL-16 R/B               
1 31793U 07029B   19034.92949719  .00000167  00000-0  11239-3 0  9991
2 31793  70.9729 215.6670 0002358 272.2824 239.8221 14.14406438599051
KORONAS-FOTON           
1 33504U 09003A   19034.93870319  .00000027  00000-0 -26189-6 0  9996
2 33504  82.4432 359.7193 0018502 202.5454 157.4967 15.15332578551735
H-2A R/B                
1 38341U 12025E   19034.93553716  .00000091  00000-0  18178-4 0  9994
2 38341  98.4334 154.8052 0056355  39.2393 321.2883 14.83845181363282
CUSAT 2 & FALCON 9 R/B  
1 39271U 13055G   19034.68319892  .00005862  00000-0  14626-3 0  9992
2 39271  80.9675  82.7301 0605964 228.1386 126.6573 14.43639891278511
SL-4 R/B                
1 39679U 14021B   19034.89454819  .00000129  00000-0  24751-4 0  9992
2 39679  51.6154 264.9411 0173318  15.4157 345.2000 15.05995715263733
ALOS-2                  
1 39766U 14029A   19034.90727766 -.00000411  00000-0 -48136-4 0  9992
2 39766  97.9199 133.6773 0001467  85.6791 274.4597 14.79468226253839
SL-27 R/B               
1 40354U 14084B   19034.96134861  .00001003  00000-0  26286-4 0  9990
2 40354  74.7398 340.8620 0036926  61.1722 299.3189 15.39491506231251
ASTRO-H (HITOMI)        
1 41337U 16012A   19034.91831445  .00000236  00000-0  12193-4 0  9991
2 41337  31.0057 296.6975 0012497 175.8350 184.2391 14.98545467162507
TIANGONG-2              
1 41765U 16057A   19034.92381084  .00004910  00000-0  62220-4 0  9994
2 41765  42.7854  41.4570 0006933  54.5326  22.4212 15.60590387136212
SHENZHOU-11 MODULE      
1 41868U 16061G   19034.76547012  .00015650  00000-0  97204-4 0  9993
2 41868  42.7945 343.9300 0004436 196.5859 241.6044 15.76742038126780
